TIANLIAN 2-04           
1 63361U 25062A   26066.63294605 -.00000139  00000+0  00000+0 0  9991
2 63361   4.6356 275.8254 0034771   9.6900 187.7126  1.00271791  3580
TJS-16                  
1 63397U 25064A   26066.78093623 -.00000106  00000+0  00000+0 0  9999
2 63397   0.8362  81.9351 0005184 260.8030 264.4571  1.00272654  3372
TJS-17                  
1 63524U 25073A   26066.80223481 -.00000071  00000+0  00000+0 0  9992
2 63524   0.8016  83.5204 0004418 252.3735 282.8954  1.00272328  3278
TIANLIAN 2-05           
1 63662U 25084A   26066.29868968  .00000119  00000+0  00000+0 0  9997
2 63662   4.7094 280.9413 0003252  85.2773 286.6951  1.00273980  3369
TJS-19                  
1 63924U 25097A   26066.80089637 -.00000277  00000+0  00000+0 0  9993
2 63924   3.4597 315.8530 0003392 338.0488 301.1181  1.00275740  3127
CHINASAT 3B             
1 64062U 25106A   26064.90160946  .00000000  00000+0  00000+0 0  9993
2 64062   0.0213 135.9648 0001773 194.0821 325.4661  1.00268665  3021
SXM-10                  
1 64290U 25122A   26066.20040921 -.00000019  00000+0  00000+0 0  9990
2 64290   0.0255  64.4497 0002755 306.0798 110.3471  1.00273062  2663
CHINASAT 9C             
1 64470U 25132A   26066.58627726 -.00000248  00000+0  00000+0 0  9990
2 64470   0.0293 107.7147 0002536 230.2286 130.6042  1.00271442  3137
MTG-S1                  
1 64723U 25143A   26066.29400965 -.00000034  00000+0  00000+0 0  9998
2 64723   0.6521 326.8037 0002454 349.9696 310.5915  1.00270406  2396
DROR 1                  
1 64784U 25148A   26066.29392299 -.00000037  00000+0  00000+0 0  9993
2 64784   0.0355  85.4351 0003508 263.7791 277.5827  1.00271450  2270
SHIYAN-29               
1 65486U 25196A   26065.76370706 -.00000271  00000+0  00000+0 0  9996
2 65486  28.7137  19.8240 0009943 182.4242 331.6771  1.00288440  1850
NUSANTARA LIMA (NUSANT*)
1 65588U 25205A   26065.98239321 -.00000360  00000+0  00000+0 0  9990
2 65588   0.0811  57.4738 0000953   2.2162 211.4958  1.00271886  1697
TJS-20                  
1 66142U 25238A   26066.63773992  .00000023  00000+0  00000+0 0  9998
2 66142   5.6956 299.9290 0007773  92.2678  65.1075  1.00270893  1319
CMS-03 (GSAT-7R)        
1 66311U 25249B   26066.64275071 -.00000053  00000+0  00000+0 0  9998
2 66311   0.0545 270.8612 0001653 211.8451 351.8763  0.99987762  1333
SHIJIAN-28 (SJ-28)      
1 66549U 25277A   26066.58169897 -.00000364  00000+0  00000+0 0  9998
2 66549   4.8003 273.6645 0000308 165.0303  52.7668  1.00273548  1138
TJS-22                  
1 66990U 25290A   26066.14872932 -.00000010  00000+0  00000+0 0  9994
2 66990   1.7800 285.4453 0002890 359.1777   0.2201  1.00272345  1007
TJS-23                  
1 67226U 25306A   26065.88270855  .00000012  00000+0  00000+0 0  9992
2 67226   5.8211 297.9942 0004624 108.3772 251.5396  1.00275233   866
